start=new Date('2022-08-05T00:00:00.000Z').valueOf();
sats=[{"MEAN_MOTION_DOT":"0.00001121","APOAPSIS":"548.325","DECAY_DATE":null,"EPHEMERIS_TYPE":"0","CENTER_NAME":"EARTH","NORAD_CAT_ID":"47843","TLE_LINE2":"2 47843  53.0545  30.0063 0001653  77.7958 282.3216 15.06410945 78677","MEAN_ELEMENT_THEORY":"SGP4","SITE":"AFETR","LAUNCH_DATE":"2021-03-11","ECCENTRICITY":"0.00016530","MEAN_MOTION_DDOT":"0.0000000000000","RA_OF_ASC_NODE":"30.0063","COUNTRY_CODE":"US","REV_AT_EPOCH":"7867","PERIAPSIS":"546.035","OBJECT_NAME":"STARLINK-2435","PERIOD":"95.591","TLE_LINE1":"1 47843U 21018BJ  22216.89224644  .00001121  00000-0  94127-4 0  9992","FILE":"3529274","ELEMENT_SET_NO":"999","OBJECT_ID":"2021-018BJ","REF_FRAME":"TEME","BSTAR":"0.00009412700000","OBJECT_TYPE":"PAYLOAD","CLASSIFICATION_TYPE":"U","INCLINATION":"53.0545","GP_ID":"209589264","RCS_SIZE":"LARGE","SEMIMAJOR_AXIS":"6925.315","TIME_SYSTEM":"UTC","EPOCH":"2022-08-04T21:24:50.092416","MEAN_ANOMALY":"282.3216","ARG_OF_PERICENTER":"77.7958","MEAN_MOTION":"15.06410945"},{"RCS_SIZE":"LARGE","GP_ID":"209590013","OBJECT_TYPE":"PAYLOAD","BSTAR":"0.00003209100000","INCLINATION":"53.0558","CLASSIFICATION_TYPE":"U","REF_FRAME":"TEME","OBJECT_ID":"2021-018BK","ARG_OF_PERICENTER":"87.1590","MEAN_MOTION":"15.06396076","TIME_SYSTEM":"UTC","SEMIMAJOR_AXIS":"6925.361","EPOCH":"2022-08-04T19:47:17.636352","MEAN_ANOMALY":"272.9560","MEAN_MOTION_DDOT":"0.0000000000000","MEAN_ELEMENT_THEORY":"SGP4","TLE_LINE2":"2 47844  53.0558  25.3100 0001413  87.1590 272.9560 15.06396076 78712","LAUNCH_DATE":"2021-03-11","ECCENTRICITY":"0.00014130","SITE":"AFETR","NORAD_CAT_ID":"47844","APOAPSIS":"548.204","DECAY_DATE":null,"MEAN_MOTION_DOT":"0.00000197","CENTER_NAME":"EARTH","EPHEMERIS_TYPE":"0","ELEMENT_SET_NO":"999","PERIOD":"95.592","FILE":"3529274","TLE_LINE1":"1 47844U 21018BK  22216.82450968  .00000197  00000-0  32091-4 0  9990","PERIAPSIS":"546.247","COUNTRY_CODE":"US","REV_AT_EPOCH":"7871","OBJECT_NAME":"STARLINK-2446","RA_OF_ASC_NODE":"25.3100"},{"LAUNCH_DATE":"2021-03-11","ECCENTRICITY":"0.00014930","SITE":"AFETR","MEAN_ELEMENT_THEORY":"SGP4","TLE_LINE2":"2 47845  53.0547  25.2223 0001493  89.1328 270.9832 15.06392509 78723","MEAN_MOTION_DDOT":"0.0000000000000","CENTER_NAME":"EARTH","EPHEMERIS_TYPE":"0","APOAPSIS":"548.270","DECAY_DATE":null,"MEAN_MOTION_DOT":"0.00000892","NORAD_CAT_ID":"47845","FILE":"3529274","TLE_LINE1":"1 47845U 21018BL  22216.84294224  .00000892  00000-0  78782-4 0  9993","PERIOD":"95.593","ELEMENT_SET_NO":"999","RA_OF_ASC_NODE":"25.2223","OBJECT_NAME":"STARLINK-2453","PERIAPSIS":"546.203","REV_AT_EPOCH":"7872","COUNTRY_CODE":"US","RCS_SIZE":"LARGE","GP_ID":"209588762","REF_FRAME":"TEME","OBJECT_ID":"2021-018BL","CLASSIFICATION_TYPE":"U","INCLINATION":"53.0547","OBJECT_TYPE":"PAYLOAD","BSTAR":"0.00007878200000","MEAN_MOTION":"15.06392509","ARG_OF_PERICENTER":"89.1328","EPOCH":"2022-08-04T20:13:50.209536","MEAN_ANOMALY":"270.9832","TIME_SYSTEM":"UTC","SEMIMAJOR_AXIS":"6925.372"},{"NORAD_CAT_ID":"47846","EPHEMERIS_TYPE":"0","CENTER_NAME":"EARTH","MEAN_MOTION_DOT":"-0.00000818","APOAPSIS":"548.467","DECAY_DATE":null,"MEAN_MOTION_DDOT":"0.0000000000000","SITE":"AFETR","LAUNCH_DATE":"2021-03-11","ECCENTRICITY":"0.00017840","TLE_LINE2":"2 47846  53.0549  26.4258 0001784  89.3226 270.7967 15.06394261 78734","MEAN_ELEMENT_THEORY":"SGP4","OBJECT_NAME":"STARLINK-2456","REV_AT_EPOCH":"7873","COUNTRY_CODE":"US","PERIAPSIS":"545.996","RA_OF_ASC_NODE":"26.4258","ELEMENT_SET_NO":"999","TLE_LINE1":"1 47846U 21018BM  22216.57292432 -.00000818  00000-0 -36031-4 0  9994","FILE":"3529274","PERIOD":"95.593","INCLINATION":"53.0549","CLASSIFICATION_TYPE":"U","BSTAR":"-0.00003603100000","OBJECT_TYPE":"PAYLOAD","OBJECT_ID":"2021-018BM","REF_FRAME":"TEME","GP_ID":"209588513","RCS_SIZE":"LARGE","EPOCH":"2022-08-04T13:45:00.661248","MEAN_ANOMALY":"270.7967","TIME_SYSTEM":"UTC","SEMIMAJOR_AXIS":"6925.366","MEAN_MOTION":"15.06394261","ARG_OF_PERICENTER":"89.3226"},{"OBJECT_NAME":"STARLINK-2258","REV_AT_EPOCH":"7806","COUNTRY_CODE":"US","PERIAPSIS":"546.182","RA_OF_ASC_NODE":"55.5064","ELEMENT_SET_NO":"999","TLE_LINE1":"1 47860U 21021A   22216.77751411  .00000422  00000-0  47250-4 0  9997","FILE":"3529274","PERIOD":"95.592","NORAD_CAT_ID":"47860","EPHEMERIS_TYPE":"0","CENTER_NAME":"EARTH","MEAN_MOTION_DOT":"0.00000422","APOAPSIS":"548.272","DECAY_DATE":null,"MEAN_MOTION_DDOT":"0.0000000000000","SITE":"AFETR","ECCENTRICITY":"0.00015090","LAUNCH_DATE":"2021-03-14","TLE_LINE2":"2 47860  53.0541  55.5064 0001509 103.9722 256.1434 15.06395651 78066","MEAN_ELEMENT_THEORY":"SGP4","EPOCH":"2022-08-04T18:39:37.219104","MEAN_ANOMALY":"256.1434","TIME_SYSTEM":"UTC","SEMIMAJOR_AXIS":"6925.362","MEAN_MOTION":"15.06395651","ARG_OF_PERICENTER":"103.9722","INCLINATION":"53.0541","CLASSIFICATION_TYPE":"U","BSTAR":"0.00004725000000","OBJECT_TYPE":"PAYLOAD","OBJECT_ID":"2021-021A","REF_FRAME":"TEME","GP_ID":"209589515","RCS_SIZE":"LARGE"},{"MEAN_MOTION":"15.06409014","ARG_OF_PERICENTER":"81.0976","EPOCH":"2022-08-04T15:54:24.749280","MEAN_ANOMALY":"279.0183","SEMIMAJOR_AXIS":"6925.321","TIME_SYSTEM":"UTC","GP_ID":"209588264","RCS_SIZE":"LARGE","OBJECT_ID":"2021-021B","REF_FRAME":"TEME","CLASSIFICATION_TYPE":"U","INCLINATION":"53.0541","BSTAR":"0.00008062800000","OBJECT_TYPE":"PAYLOAD","TLE_LINE1":"1 47861U 21021B   22216.66278645  .00000920  00000-0  80628-4 0  9998","FILE":"3529274","PERIOD":"95.592","ELEMENT_SET_NO":"999","RA_OF_ASC_NODE":"41.0204","OBJECT_NAME":"STARLINK-2280","REV_AT_EPOCH":"7836","COUNTRY_CODE":"US","PERIAPSIS":"546.142","SITE":"AFETR","ECCENTRICITY":"0.00015070","LAUNCH_DATE":"2021-03-14","TLE_LINE2":"2 47861  53.0541  41.0204 0001507  81.0976 279.0183 15.06409014 78365","MEAN_ELEMENT_THEORY":"SGP4","MEAN_MOTION_DDOT":"0.0000000000000","EPHEMERIS_TYPE":"0","CENTER_NAME":"EARTH","MEAN_MOTION_DOT":"0.00000920","DECAY_DATE":null,"APOAPSIS":"548.230","NORAD_CAT_ID":"47861"},{"REF_FRAME":"TEME","OBJECT_ID":"2021-021C","BSTAR":"-0.00006860100000","OBJECT_TYPE":"PAYLOAD","CLASSIFICATION_TYPE":"U","INCLINATION":"53.0552","GP_ID":"209589014","RCS_SIZE":"LARGE","TIME_SYSTEM":"UTC","SEMIMAJOR_AXIS":"6925.366","MEAN_ANOMALY":"276.2882","EPOCH":"2022-08-04T21:48:03.706272","ARG_OF_PERICENTER":"83.8251","MEAN_MOTION":"15.06394233","MEAN_MOTION_DOT":"-0.00001303","DECAY_DATE":null,"APOAPSIS":"548.109","EPHEMERIS_TYPE":"0","CENTER_NAME":"EARTH","NORAD_CAT_ID":"47862","TLE_LINE2":"2 47862  53.0552  34.9352 0001267  83.8251 276.2882 15.06394233 78464","MEAN_ELEMENT_THEORY":"SGP4","SITE":"AFETR","ECCENTRICITY":"0.00012670","LAUNCH_DATE":"2021-03-14","MEAN_MOTION_DDOT":"0.0000000000000","RA_OF_ASC_NODE":"34.9352","COUNTRY_CODE":"US","REV_AT_EPOCH":"7846","PERIAPSIS":"546.354","OBJECT_NAME":"STARLINK-2291","PERIOD":"95.593","TLE_LINE1":"1 47862U 21021C   22216.90837623 -.00001303  00000-0 -68601-4 0  9998","FILE":"3529274","ELEMENT_SET_NO":"999"},{"OBJECT_NAME":"STARLINK-2293","PERIAPSIS":"546.175","COUNTRY_CODE":"US","REV_AT_EPOCH":"7828","RA_OF_ASC_NODE":"46.3156","ELEMENT_SET_NO":"999","FILE":"3529274","TLE_LINE1":"1 47863U 21021D   22216.60151494 -.00000026  00000-0  17142-4 0  9995","PERIOD":"95.593","NORAD_CAT_ID":"47863","CENTER_NAME":"EARTH","EPHEMERIS_TYPE":"0","DECAY_DATE":null,"APOAPSIS":"548.300","MEAN_MOTION_DOT":"-0.00000026","MEAN_MOTION_DDOT":"0.0000000000000","LAUNCH_DATE":"2021-03-14","ECCENTRICITY":"0.00015340","SITE":"AFETR","MEAN_ELEMENT_THEORY":"SGP4","TLE_LINE2":"2 47863  53.0550  46.3156 0001534  89.8876 270.2288 15.06392136 78282","MEAN_ANOMALY":"270.2288","EPOCH":"2022-08-04T14:26:10.890816","SEMIMAJOR_AXIS":"6925.373","TIME_SYSTEM":"UTC","MEAN_MOTION":"15.06392136","ARG_OF_PERICENTER":"89.8876","INCLINATION":"53.0550","CLASSIFICATION_TYPE":"U","OBJECT_TYPE":"PAYLOAD","BSTAR":"0.00001714200000","OBJECT_ID":"2021-021D","REF_FRAME":"TEME","RCS_SIZE":"LARGE","GP_ID":"209589266"},{"EPHEMERIS_TYPE":"0","CENTER_NAME":"EARTH","MEAN_MOTION_DOT":"-0.00000152","DECAY_DATE":null,"APOAPSIS":"548.245","NORAD_CAT_ID":"47864","SITE":"AFETR","ECCENTRICITY":"0.00015040","LAUNCH_DATE":"2021-03-14","TLE_LINE2":"2 47864  53.0556  34.9579 0001504  84.4710 275.6450 15.06403188 78444","MEAN_ELEMENT_THEORY":"SGP4","MEAN_MOTION_DDOT":"0.0000000000000","RA_OF_ASC_NODE":"34.9579","OBJECT_NAME":"STARLINK-2304","COUNTRY_CODE":"US","REV_AT_EPOCH":"7844","PERIAPSIS":"546.162","TLE_LINE1":"1 47864U 21021E   22216.91205645 -.00000152  00000-0  87100-5 0  9990","FILE":"3529274","PERIOD":"95.592","ELEMENT_SET_NO":"999","OBJECT_ID":"2021-021E","REF_FRAME":"TEME","INCLINATION":"53.0556","CLASSIFICATION_TYPE":"U","BSTAR":"0.00000871000000","OBJECT_TYPE":"PAYLOAD","GP_ID":"209590015","RCS_SIZE":"LARGE","EPOCH":"2022-08-04T21:53:21.677280","MEAN_ANOMALY":"275.6450","SEMIMAJOR_AXIS":"6925.339","TIME_SYSTEM":"UTC","MEAN_MOTION":"15.06403188","ARG_OF_PERICENTER":"84.4710"},{"SITE":"AFETR","LAUNCH_DATE":"2021-03-14","ECCENTRICITY":"0.00014320","TLE_LINE2":"2 47865  53.0564  44.9252 0001432  90.5343 269.5810 15.06398646 78436","MEAN_ELEMENT_THEORY":"SGP4","MEAN_MOTION_DDOT":"0.0000000000000","EPHEMERIS_TYPE":"0","CENTER_NAME":"EARTH","MEAN_MOTION_DOT":"0.00000566","DECAY_DATE":null,"APOAPSIS":"548.209","NORAD_CAT_ID":"47865","TLE_LINE1":"1 47865U 21021F   22216.90649977  .00000566  00000-0  56868-4 0  9994","FILE":"3529274","PERIOD":"95.592","ELEMENT_SET_NO":"999","RA_OF_ASC_NODE":"44.9252","OBJECT_NAME":"STARLINK-2310","COUNTRY_CODE":"US","REV_AT_EPOCH":"7843","PERIAPSIS":"546.226","GP_ID":"209588764","RCS_SIZE":"LARGE","OBJECT_ID":"2021-021F","REF_FRAME":"TEME","CLASSIFICATION_TYPE":"U","INCLINATION":"53.0564","BSTAR":"0.00005686800000","OBJECT_TYPE":"PAYLOAD","MEAN_MOTION":"15.06398646","ARG_OF_PERICENTER":"90.5343","EPOCH":"2022-08-04T21:45:21.580128","MEAN_ANOMALY":"269.5810","SEMIMAJOR_AXIS":"6925.353","TIME_SYSTEM":"UTC"}];
